STARLINK-5286           
1 55294U 23010AB  25164.54530019 -.00008315  00000+0 -68983-3 0  9991
2 55294  69.9978   2.9413 0003498 268.0255  92.0503 14.98334123132166
STARLINK-5293           
1 55295U 23010AC  25163.85266597  .00000348  00000+0  36980-4 0  9991
2 55295  70.0002   4.9444 0002881 266.2115  93.8714 14.98331874132369
STARLINK-5285           
1 55296U 23010AD  25164.52419386 -.00000262  00000+0 -14168-4 0  9994
2 55296  69.9997 343.0026 0002331 262.8197  97.2697 14.98331440132643
STARLINK-5284           
1 55297U 23010AE  25163.79818323 -.00000135  00000+0 -35083-5 0  9996
2 55297  69.9992 344.8842 0003049 271.6438  88.4371 14.98328632132849
STARLINK-5270           
1 55299U 23010AG  25163.85241740  .00000025  00000+0  98838-5 0  9991
2 55299  70.0000 344.6722 0002946 267.2634  92.8188 14.98330542133730
STARLINK-5308           
1 55300U 23010AH  25164.51583776  .00000566  00000+0  55248-4 0  9993
2 55300  69.9995 342.9730 0002472 268.7033  91.3843 14.98336966132643
STARLINK-5321           
1 55302U 23010AK  25163.79400910 -.00000258  00000+0 -13794-4 0  9992
2 55302  69.9997 344.8664 0002723 263.0657  97.0193 14.98336037132845
STARLINK-5322           
1 55303U 23010AL  25164.53276389 -.00000191  00000+0 -82515-5 0  9991
2 55303  70.0000   2.8999 0002404 268.5192  91.5692 14.98329069132161
STARLINK-5318           
1 55304U 23010AM  25163.84408133 -.00000487  00000+0 -33055-4 0  9991
2 55304  69.9997 344.6407 0002521 267.5433  92.5438 14.98323687132857
STARLINK-5316           
1 55305U 23010AN  25163.83992272  .00000358  00000+0  37777-4 0  9993
2 55305  69.9998 345.0319 0003012 268.1841  91.8973 14.98331888132850
STARLINK-5295           
1 55306U 23010AP  25164.14429978  .00001459  00000+0  13011-3 0  9994
2 55306  70.0005 324.2108 0002485 267.0866  93.0009 14.98321570133083
STARLINK-5288           
1 55307U 23010AQ  25164.54901162  .00000170  00000+0  22003-4 0  9990
2 55307  70.0002 323.2158 0003040 268.8752  91.2059 14.98330167133140
STARLINK-5315           
1 55309U 23010AS  25163.83132114 -.00000007  00000+0  71792-5 0  9996
2 55309  70.0001 324.7228 0003057 268.1083  91.9726 14.98331584133358
STARLINK-5309           
1 55310U 23010AT  25164.53649223 -.00000294  00000+0 -16875-4 0  9999
2 55310  69.9999 323.1700 0002780 265.3128  94.7713 14.98330934133133
STARLINK-5312           
1 55311U 23010AU  25163.80630220  .00000287  00000+0  31820-4 0  9993
2 55311  69.9999 325.0367 0003225 268.4108  91.6682 14.98332838134217
STARLINK-5296           
1 55312U 23010AV  25163.84383642  .00000153  00000+0  20631-4 0  9991
2 55312  69.9993 324.6529 0003063 268.5042  91.5766 14.98331030134221
STARLINK-5313           
1 55313U 23010AW  25164.52814145  .00000314  00000+0  34122-4 0  9994
2 55313  69.9994 323.1406 0003113 267.5268  92.5535 14.98330483133131
STARLINK-5305           
1 55314U 23010AX  25164.53231504  .00000753  00000+0  70923-4 0  9994
2 55314  69.9995 323.1535 0003180 270.1277  89.9517 14.98329637133140
STARLINK-4623           
1 55315U 23010AY  25164.54505922  .00000658  00000+0  62929-4 0  9995
2 55315  69.9997 343.0767 0002911 270.8264  89.2562 14.98329312132653
STARLINK-5257           
1 55316U 23010AZ  25164.56985875 -.00000134  00000+0 -34655-5 0  9994
2 55316  69.9996 322.9005 0002942 267.0642  93.0181 14.98329087133151
STARLINK-5265           
1 55317U 23010BA  25164.52394058  .00003658  00000+0  31396-3 0  9997
2 55317  69.9994 323.1528 0002903 258.4207 101.6626 14.98359400133142
STARLINK-5180           
1 55318U 23010BB  25163.85220498 -.00001620  00000+0 -12800-3 0  9997
2 55318  69.9991 324.7933 0003229 264.6062  95.4729 14.98319465134228
STARLINK-5196           
1 55319U 23010BC  25164.51561602  .00000334  00000+0  35790-4 0  9990
2 55319  69.9991 323.0967 0003055 269.9208  90.1601 14.98318770133133
HAWK-6B                 
1 55324U 23011A   25163.87745823  .00004217  00000+0  21093-3 0  9998
2 55324  40.5163 338.0140 0002211 325.2543  34.8120 15.18202971131615
HAWK-6C                 
1 55326U 23011C   25163.87697047  .00004425  00000+0  22089-3 0  9991
2 55326  40.4852 335.6137 0001665 302.3284  57.7363 15.18200560131626
HAWK-6A                 
1 55327U 23011D   25163.87692735  .00004357  00000+0  21762-3 0  9992
2 55327  40.5010 336.8495 0001251 324.4213  35.6511 15.18203547131620
STARLINK-5492           
1 55331U 23013A   25163.91559501  .00000544  00000+0  55376-4 0  9990
2 55331  43.0051 326.6197 0001530 268.9394  91.1273 15.02539561131551
STARLINK-5491           
1 55332U 23013B   25163.76402884 -.00000046  00000+0  11639-4 0  9997
2 55332  43.0043 314.1809 0001316 270.3807  89.6884 15.02536073131255
STARLINK-5493           
1 55333U 23013C   25163.51117982  .00000429  00000+0  46858-4 0  9998
2 55333  43.0048 328.7436 0001521 262.9709  97.0960 15.02534222131065
STARLINK-5652           
1 55334U 23013D   25164.17815730  .00000865  00000+0  79063-4 0  9996
2 55334  43.0057 325.0505 0001510 266.3987  93.6683 15.02544900131593
STARLINK-5660           
1 55335U 23013E   25164.17263493 -.00000185  00000+0  13509-5 0  9990
2 55335  43.0049 325.1070 0000861 271.4055  88.6688 15.02531812131591
STARLINK-5655           
1 55336U 23013F   25163.77400308  .00000934  00000+0  84203-4 0  9993
2 55336  43.0047 314.1731 0001341 272.3538  87.7151 15.02537153131681
STARLINK-5667           
1 55337U 23013G   25163.75404792  .00000274  00000+0  35392-4 0  9995
2 55337  43.0045 314.0706 0001285 267.1428  92.9267 15.02531418131255
STARLINK-5658           
1 55338U 23013H   25164.17040375  .00000308  00000+0  37900-4 0  9991
2 55338  43.0051 325.0898 0001477 259.9845 100.0831 15.02542513131595
STARLINK-5671           
1 55339U 23013J   25163.76599047  .00000416  00000+0  45883-4 0  9990
2 55339  43.0042 327.2133 0001438 255.0751 104.9932 15.02539051131107
STARLINK-5675           
1 55340U 23013K   25164.15265307 -.00000549  00000+0 -25548-4 0  9990
2 55340  43.0050 324.9602 0001094 268.6446  91.4271 15.02534469131599
STARLINK-5670           
1 55341U 23013L   25164.16707368  .00000504  00000+0  52404-4 0  9990
2 55341  43.0047 325.0650 0001239 266.0705  93.9995 15.02543235131593
STARLINK-5657           
1 55342U 23013M   25164.16152921 -.00000028  00000+0  12988-4 0  9995
2 55342  43.0045 325.0203 0001324 265.1893  94.8798 15.02535654131596
STARLINK-5661           
1 55343U 23013N   25163.75711120  .00000315  00000+0  38425-4 0  9994
2 55343  43.0039 327.1456 0001680 274.1156  85.9494 15.02535933131101
STARLINK-5653           
1 55345U 23013Q   25163.75736519  .00000819  00000+0  75678-4 0  9995
2 55345  43.0046 314.1230 0001423 264.2050  95.8630 15.02536546131254
STARLINK-5631           
1 55346U 23013R   25163.82137386 -.00000223  00000+0 -14155-5 0  9996
2 55346  43.0042 326.7681 0001187 270.2504  89.8202 15.02534454131117
STARLINK-5663           
1 55347U 23013S   25163.54325521 -.00000363  00000+0 -11772-4 0  9992
2 55347  43.0057 328.1216 0001417 271.5951  88.4729 15.02531906131073
STARLINK-5609           
1 55348U 23013T   25163.81803133 -.00001416  00000+0 -89743-4 0  9996
2 55348  43.0040 326.7415 0001149 269.2870  90.7841 15.02533833131114
STARLINK-5666           
1 55349U 23013U   25163.74823377  .00000092  00000+0  21919-4 0  9999
2 55349  43.0048 327.0798 0001347 264.5134  95.5555 15.02535030131107
STARLINK-5668           
1 55350U 23013V   25163.74490357  .00000119  00000+0  23889-4 0  9997
2 55350  43.0067 327.0565 0001859 272.5759  87.4870 15.02534682131104
STARLINK-5659           
1 55351U 23013W   25163.73380305  .00000958  00000+0  85945-4 0  9990
2 55351  43.0058 326.9696 0001233 266.7651  93.3050 15.02537282131105
STARLINK-5547           
1 55352U 23013X   25163.80582885  .00000499  00000+0  51969-4 0  9995
2 55352  43.0041 326.6511 0001162 269.5817  90.4892 15.02539382131113
STARLINK-5608           
1 55353U 23013Y   25163.71937365  .00000286  00000+0  36258-4 0  9991
2 55353  43.0050 326.8601 0001321 260.8983  99.1709 15.02535245131107
STARLINK-5649           
1 55354U 23013Z   25163.47122184  .00000246  00000+0  33263-4 0  9999
2 55354  43.0051 328.4404 0001189 262.1971  97.8737 15.02536450131062
STARLINK-5647           
1 55355U 23013AA  25163.72714239 -.00000160  00000+0  32059-5 0  9995
2 55355  43.0041 326.9065 0001180 264.3644  95.7064 15.02535193131096
STARLINK-5651           
1 55357U 23013AC  25163.72825463  .00000210  00000+0  30631-4 0  9997
2 55357  43.0049 326.9272 0001489 269.6393  90.4279 15.02534389131105
STARLINK-5622           
1 55358U 23013AD  25164.46173172 -.00000628  00000+0 -31418-4 0  9992
2 55358  43.0045 322.9716 0001361 256.7124 103.3567 15.02534948131643
STARLINK-5641           
1 55359U 23013AE  25163.79140373  .00000057  00000+0  19301-4 0  9996
2 55359  43.0050 326.5418 0001401 268.3362  91.7320 15.02532718131119
STARLINK-5664           
1 55360U 23013AF  25163.57506049  .00000341  00000+0  40280-4 0  9996
2 55360  43.0037 340.4883 0001333 265.0752  94.9938 15.02535706130937
STARLINK-5665           
1 55361U 23013AG  25163.47036737  .00000801  00000+0  74360-4 0  9995
2 55361  43.0043 315.4296 0001288 268.0499  92.0196 15.02538037131212
STARLINK-5574           
1 55362U 23013AH  25163.81385588  .00000054  00000+0  19070-4 0  9992
2 55362  43.0050 313.7028 0001442 266.1672  93.9006 15.02535868131263
STARLINK-5627           
1 55364U 23013AK  25163.78918232  .00000204  00000+0  30166-4 0  9994
2 55364  43.0043 326.5238 0001399 263.2392  96.8291 15.02536874131110
STARLINK-5639           
1 55365U 23013AL  25163.94741698  .00002097  00000+0  17023-3 0  9991
2 55365  43.0035 338.9865 0001381 257.6559 102.4129 15.02538679131410
STARLINK-5654           
1 55366U 23013AM  25163.75071088  .00000009  00000+0  15704-4 0  9996
2 55366  43.0043 314.0870 0001192 271.8918  88.1788 15.02535189131254
